[{"OBJECT_NAME":"STARLINK-4358","OBJECT_ID":"2022-084AN","EPOCH":"2026-03-09T16:49:51.672000","MEAN_MOTION":15.05643906,"ECCENTRICITY":7.825e-5,"INCLINATION":97.6033,"RA_OF_ASC_NODE":131.1835,"ARG_OF_PERICENTER":112.5717,"MEAN_ANOMALY":247.5593,"EPHEMERIS_TYPE":0,"CLASSIFICATION_TYPE":"U","NORAD_CAT_ID":53225,"ELEMENT_SET_NO":999,"REV_AT_EPOCH":19938,"BSTAR":9.4536211e-5,"MEAN_MOTION_DOT":1.303e-5,"MEAN_MOTION_DDOT":0},{"OBJECT_NAME":"PSLV R\/B","OBJECT_ID":"2018-071C","EPOCH":"2026-03-09T22:40:07.416192","MEAN_MOTION":15.00058604,"ECCENTRICITY":0.00237177,"INCLINATION":97.444,"RA_OF_ASC_NODE":249.6196,"ARG_OF_PERICENTER":104.8167,"MEAN_ANOMALY":255.5687,"EPHEMERIS_TYPE":0,"CLASSIFICATION_TYPE":"U","NORAD_CAT_ID":43620,"ELEMENT_SET_NO":999,"REV_AT_EPOCH":40754,"BSTAR":0.00020356401,"MEAN_MOTION_DOT":2.493e-5,"MEAN_MOTION_DDOT":0}]
